*******************************************************************************
JPL/HORIZONS               355 Gabriella (A893 BD)         2023-Sep-04 11:05:51
Rec #:     355 (+COV) Soln.date: 2023-Aug-23_11:24:41   # obs: 9126 (1893-2023)
 
IAU76/J2000 helio. ecliptic osc. elements (au, days, deg., period=Julian yrs):
 
  EPOCH=  2457232.5 ! 2015-Jul-29.00 (TDB)         Residual RMS= .27614
   EC= .1069037334112374   QR= 2.265749686435154   TP= 2456736.007151566
   OM= 351.827329163512    W=  105.6378318399874   IN= 4.28371680572013
   A= 2.53696020372958     MA= 121.1006820439509   ADIST= 2.808170721024005
   PER= 4.04091            N= .243912238           ANGMOM= .02724221
   DAN= 2.58238            DDN= 2.43772            L= 97.50681729999999
   B= 4.1248743            MOID= 1.28838003        TP= 2014-Mar-19.5071515660
 
Asteroid physical parameters (km, seconds, rotational period in hours):
   GM= n.a.                RAD= 12.02              ROTPER= 4.83
   H= 10.35                G= .150                 B-V= n.a.
                           ALBEDO= .341            STYP= S

ASTEROID comments: 
1: soln ref.= JPL#62, OCC=0
2: source=ORB
*******************************************************************************


*******************************************************************************
Ephemeris / API_USER Mon Sep  4 11:05:52 2023 Pasadena, USA      / Horizons
*******************************************************************************
Target body name: 355 Gabriella (A893 BD)         {source: JPL#62}
Center body name: Solar System Barycenter (0)     {source: DE441}
Center-site name: BODY CENTER
*******************************************************************************
Start time      : A.D. 2023-Aug-12 00:00:00.0000 TDB
Stop  time      : A.D. 2023-Aug-13 00:00:00.0000 TDB
Step-size       : 2880 minutes
*******************************************************************************
Center geodetic : 0.0, 0.0, 0.0                   {E-lon(deg),Lat(deg),Alt(km)}
Center cylindric: 0.0, 0.0, 0.0                   {E-lon(deg),Dxy(km),Dz(km)}
Center radii    : (undefined)
Small perturbers: Yes                             {source: SB441-N16}
Output units    : KM-S
Calendar mode   : Mixed Julian/Gregorian
Output type     : GEOMETRIC cartesian states
Output format   : 2 (position and velocity)
Reference frame : Ecliptic of J2000.0
*******************************************************************************
Initial IAU76/J2000 heliocentric ecliptic osculating elements (au, days, deg.):
  EPOCH=  2457232.5 ! 2015-Jul-29.00 (TDB)         Residual RMS= .27614        
   EC= .1069037334112374   QR= 2.265749686435154   TP= 2456736.007151566       
   OM= 351.827329163512    W=  105.6378318399874   IN= 4.28371680572013        
  Equivalent ICRF heliocentric cartesian coordinates (au, au/d):
   X=-1.791917409354674E+00  Y=-1.775553444771865E+00  Z=-9.528701109337996E-01
  VX= 6.965022252382047E-03 VY=-6.560817379659349E-03 VZ=-3.358015930417169E-03
Asteroid physical parameters (km, seconds, rotational period in hours):        
   GM= n.a.                RAD= 12.02              ROTPER= 4.83                
   H= 10.35                G= .150                 B-V= n.a.                   
                           ALBEDO= .341            STYP= S                     
*******************************************************************************
JDTDB
   X     Y     Z
   VX    VY    VZ
*******************************************************************************
$$SOE
2460168.500000000 = A.D. 2023-Aug-12 00:00:00.0000 TDB 
 X =-2.863539992686544E+08 Y =-2.800827598764992E+08 Z =-2.382103566029409E+07
 VX= 1.122827632883818E+01 VY=-1.368907308032184E+01 VZ=-8.920109855074063E-01
$$EOE
*******************************************************************************
 
TIME

  Barycentric Dynamical Time ("TDB" or T_eph) output was requested. This
continuous coordinate time is equivalent to the relativistic proper time
of a clock at rest in a reference frame co-moving with the solar system
barycenter but outside the system's gravity well. It is the independent
variable in the solar system relativistic equations of motion.

  TDB runs at a uniform rate of one SI second per second and is independent
of irregularities in Earth's rotation.
 
CALENDAR SYSTEM

  Mixed calendar mode was active such that calendar dates after AD 1582-Oct-15
(if any) are in the modern Gregorian system. Dates prior to 1582-Oct-5 (if any)
are in the Julian calendar system, which is automatically extended for dates
prior to its adoption on 45-Jan-1 BC.  The Julian calendar is useful for
matching historical dates. The Gregorian calendar more accurately corresponds
to the Earth's orbital motion and seasons. A "Gregorian-only" calendar mode is
available if such physical events are the primary interest.

REFERENCE FRAME AND COORDINATES

  Ecliptic at the standard reference epoch

    Reference epoch: J2000.0
    X-Y plane: adopted Earth orbital plane at the reference epoch
               Note: IAU76 obliquity of 84381.448 arcseconds wrt ICRF X-Y plane
    X-axis   : ICRF
    Z-axis   : perpendicular to the X-Y plane in the directional (+ or -) sense
               of Earth's north pole at the reference epoch.

  Symbol meaning:

    JDTDB    Julian Day Number, Barycentric Dynamical Time
      X      X-component of position vector (km)
      Y      Y-component of position vector (km)
      Z      Z-component of position vector (km)
      VX     X-component of velocity vector (km/sec)                           
      VY     Y-component of velocity vector (km/sec)                           
      VZ     Z-component of velocity vector (km/sec)                           

ABERRATIONS AND CORRECTIONS

 Geometric state vectors have NO corrections or aberrations applied.

Computations by ...

    Solar System Dynamics Group, Horizons On-Line Ephemeris System
    4800 Oak Grove Drive, Jet Propulsion Laboratory
    Pasadena, CA  91109   USA

    General site: https://ssd.jpl.nasa.gov/
    Mailing list: https://ssd.jpl.nasa.gov/email_list.html
    System news : https://ssd.jpl.nasa.gov/horizons/news.html
    User Guide  : https://ssd.jpl.nasa.gov/horizons/manual.html
    Connect     : browser        https://ssd.jpl.nasa.gov/horizons/app.html#/x
                  API            https://ssd-api.jpl.nasa.gov/doc/horizons.html
                  command-line   telnet ssd.jpl.nasa.gov 6775
                  e-mail/batch   https://ssd.jpl.nasa.gov/ftp/ssd/hrzn_batch.txt
                  scripts        https://ssd.jpl.nasa.gov/ftp/ssd/SCRIPTS
    Author      : Jon.D.Giorgini@jpl.nasa.gov
*******************************************************************************
